SARSAT 7 (NOAA 15)      
1 25338U 98030A   20154.83934041  .00000084  00000-0  53669-4 0  9990
2 25338  98.7175 179.9642 0009386 309.4782  50.5567 14.25969213146895
METEOSAT-8 (MSG-1)      
1 27509U 02040B   20154.15390914  .00000132  00000-0  00000-0 0  9999
2 27509   6.6995  54.1705 0002758 352.0220 301.6600  1.00269549 65135
GPS BIIR-08             
1 27663U 03005A   20154.39195229 -.00000060  00000-0  00000+0 0  9990
2 27663  56.0634 302.5514 0113638  35.3666 324.8113  2.00552557127060
GPS BIIR-11             
1 28190U 04009A   20154.41408584 -.00000071  00000-0  00000-0 0  9998
2 28190  56.2750   3.3452 0092090  93.4554  78.0024  2.00562336118743
GPS BIIR-12             
1 28361U 04023A   20154.58924640  .00000100  00000-0  00000-0 0  9990
2 28361  54.0635 176.0498 0144139 235.5143 292.2952  2.00392973116807
GPS BIIR-13             
1 28474U 04045A   20154.60511365 -.00000085  00000-0  00000+0 0  9990
2 28474  54.9610  53.4805 0199545 266.9374 320.3543  2.00559584114180
SARSAT 10 (NOAA 18)     
1 28654U 05018A   20154.85437121  .00000079  00000-0  67337-4 0  9998
2 28654  99.0445 211.1461 0013142 271.9911  87.9755 14.12514796774857
GPS BIIR-14M            
1 28874U 05038A   20154.39049873 -.00000069  00000-0  00000+0 0  9995
2 28874  56.3786   0.7319 0134260 266.0445 269.0863  2.00560146107588
METEOSAT-9 (MSG-2)      
1 28912U 05049B   20154.09715376  .00000014  00000-0  00000+0 0  9994
2 28912   4.3939  70.2016 0001947  10.0314 209.0919  1.00274145 52953
GOES 13                 
1 29155U 06018A   20154.89135076  .00000035  00000-0  00000-0 0  9996
2 29155   0.1764 262.7748 0005052 285.1184  86.0808  1.00273661 21255
SARSAT 11 (METOP-A)     
1 29499U 06044A   20154.87094433 -.00000004  00000-0  17484-4 0  9990
2 29499  98.5232 202.1600 0000837  76.6754  10.5382 14.21498872706635
GPS BIIR-16M            
1 29601U 06052A   20153.70657383 -.00000055  00000-0  00000-0 0  9992
2 29601  56.0510 301.4980 0078565  65.5296 295.2709  2.00562488 99159
GPS BIIR-17M            
1 32260U 07047A   20152.01526040  .00000096  00000-0  00000-0 0  9994
2 32260  53.1883 171.5119 0121179  49.6816 311.4242  2.00560995 92568
GPS BIIR-18M            
1 32384U 07062A   20154.74059097 -.00000071  00000-0  00000+0 0  9996
2 32384  56.4742   1.3924 0012961 115.1914 183.7413  2.00575329 91336
SARSAT 12 (NOAA 19)     
1 33591U 09005A   20154.85725893  .00000073  00000-0  64983-4 0  9998
2 33591  99.1953 159.8259 0014954 115.2250 245.0472 14.12412014583074
GOES 14                 
1 35491U 09033A   20154.56432005 -.00000097  00000-0  00000-0 0  9991
2 35491   0.2873  98.3237 0008046 119.4356 132.6521  1.00270353 40008
GOES 15                 
1 36411U 10008A   20154.62521209  .00000050  00000-0  00000+0 0  9997
2 36411   0.1514 272.5138 0002791 165.5654 270.4653  1.00277262 37551
GLONASS-K 1             
1 37372U 11009A   20154.88194311 -.00000058  00000-0  00000-0 0  9994
2 37372  65.8591  28.2494 0007624 229.6138 102.3359  2.13107459 72090
GPS BIIF-2              
1 37753U 11036A   20154.37059024 -.00000081  00000-0  00000-0 0  9998
2 37753  56.1649  57.8681 0097524  44.0498 138.3414  2.00569605 65030
GSAT0101 (GALILEO-PFM)  
1 37846U 11060A   20154.28760407 -.00000087  00000-0  00000+0 0  9997
2 37846  56.6181  41.6994 0003883   4.9080 355.1326  1.70475359 53647
GSAT0102 (GALILEO-FM2)  
1 37847U 11060B   20154.51088522 -.00000088  00000-0  00000-0 0  9997
2 37847  56.6193  41.6928 0004480 336.6916 206.4596  1.70475441 53521
LUCH 5A                 
1 37951U 11074B   20154.87282047 -.00000046  00000-0  00000-0 0  9999
2 37951   3.2306 115.3582 0005113 324.8484 292.9241  1.00275235 31074
METEOSAT-10 (MSG-3)     
1 38552U 12035B   20154.76960976  .00000056  00000-0  00000-0 0  9997
2 38552   0.9977  12.9938 0001241  13.7549 151.2836  1.00266225 28770
SARSAT 13 (METOP-B)     
1 38771U 12049A   20154.85980262 -.00000009  00000-0  15645-4 0  9999
2 38771  98.6924 214.3882 0002089  75.1739  47.1764 14.21497199399956
GPS BIIF-3              
1 38833U 12053A   20154.11101606  .00000010  00000-0  00000+0 0  9994
2 38833  53.6536 233.9613 0095292  37.1728 323.5379  2.00565559 56085
GSAT0103 (GALILEO-FM3)  
1 38857U 12055A   20154.32965370  .00000089  00000-0  00000-0 0  9998
2 38857  54.9766 162.1968 0005225 270.0465  89.9320  1.70473694 47554
GSAT0104 (GALILEO-FM4)  
1 38858U 12055B   20154.26401476  .00000089  00000-0  00000-0 0  9994
2 38858  54.9774 162.1980 0004118 276.3396  83.6520  1.70473651 47556
GPS BIIF-4              
1 39166U 13023A   20153.46998079 -.00000064  00000-0  00000-0 0  9998
2 39166  56.0427 357.4208 0081727  30.9751 329.5463  2.00564966 51624
INSAT-3D                
1 39216U 13038B   20154.78867799 -.00000160  00000-0  00000-0 0  9997
2 39216   0.0337 263.1981 0001943 175.9902 178.5230  1.00272299 24998
GPS BIIF-5              
1 39533U 14008A   20151.47896920 -.00000007  00000-0  00000-0 0  9998
2 39533  53.7716 239.5030 0047049 198.5504 161.3238  2.00566835 45932
LUCH 5V                 
1 39727U 14023A   20154.93022172 -.00000272  00000-0  00000-0 0  9998
2 39727   0.5529 330.3107 0004243 115.0803 236.0383  1.00268014540409
GPS BIIF-6              
1 39741U 14026A   20154.25169011 -.00000081  00000-0  00000-0 0  9994
2 39741  56.1397  57.4004 0021013 296.4656  63.3357  2.00578329 44294
GPS BIIF-7              
1 40105U 14045A   20154.33900963  .00000102  00000-0  00000-0 0  9992
2 40105  54.5897 176.5524 0012922 105.8394 254.3660  2.00557536 41864
GSAT0201 (GALILEO 5)    
1 40128U 14050A   20151.07464531 -.00000084  00000-0  00000-0 0  9997
2 40128  50.5722   2.1044 1664917  98.7221 280.4634  1.85518519 37361
GSAT0202 (GALILEO 6)    
1 40129U 14050B   20151.87744218 -.00000086  00000-0  00000-0 0  9991
2 40129  50.6098   1.1081 1662945  99.5710 279.5808  1.85519268 39489
GPS BIIF-8              
1 40294U 14068A   20154.20570079  .00000028  00000-0  00000-0 0  9990
2 40294  55.3378 117.4875 0027269  37.0150 323.1427  2.00578355 40963
GLONASS-K 2             
1 40315U 14075A   20154.67102755 -.00000032  00000-0  00000-0 0  9991
2 40315  63.8975 267.3239 0016338 205.5576  59.7641  2.13098733 42853
GPS BIIF-9              
1 40534U 15013A   20153.84686947 -.00000058  00000-0  00000-0 0  9993
2 40534  54.2402 295.5115 0046999  10.4742 349.6041  2.00569053 37577
GSAT0203 (GALILEO 7)    
1 40544U 15017A   20154.06834572 -.00000087  00000-0  00000-0 0  9994
2 40544  56.4117  41.8415 0002335 277.1088  82.9006  1.70474389 31598
GSAT0204 (GALILEO 8)    
1 40545U 15017B   20152.08986671 -.00000080  00000-0  00000-0 0  9996
2 40545  56.4168  41.9121 0000291 164.3388 195.6972  1.70474933 32229
GPS BIIF-10             
1 40730U 15033A   20151.51297902 -.00000060  00000-0  00000-0 0  9997
2 40730  55.5605 356.6780 0053773 353.3877   6.5808  2.00563880 35713
METEOSAT-11 (MSG-4)     
1 40732U 15034A   20154.76786502  .00000002  00000-0  00000-0 0  9994
2 40732   0.4440 204.8017 0001449 277.8517  46.1283  1.00282345 17925
GSAT0205 (GALILEO 9)    
1 40889U 15045A   20152.91933416 -.00000041  00000-0  00000-0 0  9996
2 40889  56.1659 282.5557 0003277  27.2860 332.7104  1.70475366 29382
GSAT0206 (GALILEO 10)   
1 40890U 15045B   20154.31206266 -.00000049  00000-0  00000-0 0  9998
2 40890  56.1637 282.5139 0001490  27.7188 332.2631  1.70475502 29437
GPS BIIF-11             
1 41019U 15062A   20154.55573057  .00000022  00000-0  00000+0 0  9991
2 41019  55.3347 117.2998 0057346 211.3331 148.2937  2.00564267 33596
ELEKTRO-L 2             
1 41105U 15074A   20154.95952079 -.00000100  00000-0  00000-0 0  9998
2 41105   1.1656  97.3825 0000570  19.8879 196.0403  1.00270751 16407
GSAT0209 (GALILEO 12)   
1 41174U 15079A   20153.31123571  .00000092  00000-0  00000-0 0  9994
2 41174  54.9912 161.9225 0006208 302.2820  57.6972  1.70473368 27327
GSAT0208 (GALILEO 11)   
1 41175U 15079B   20154.11756636  .00000090  00000-0  00000+0 0  9995
2 41175  54.9898 161.8997 0005422 302.0685  57.9172  1.70473478 27754
GPS BIIF-12             
1 41328U 16007A   20154.14969819  .00000103  00000-0  00000-0 0  9995
2 41328  54.8255 177.0420 0041586 222.6693 137.0701  2.00557892 31645
GSAT0211 (GALILEO 14)   
1 41549U 16030A   20153.06654810 -.00000042  00000-0  00000-0 0  9991
2 41549  56.3074 282.4028 0002017 316.9157  43.0472  1.70475114 25049
GSAT0210 (GALILEO 13)   
1 41550U 16030B   20154.53264902 -.00000049  00000-0  00000-0 0  9992
2 41550  56.3057 282.3643 0001851 256.5422 103.4106  1.70475245 25065
INSAT-3DR               
1 41752U 16054A   20154.86740267 -.00000081  00000-0  00000-0 0  9997
2 41752   0.1420  96.9727 0010277 176.4379   4.6414  1.00271439 13697
GSAT0207 (GALILEO 15)   
1 41859U 16069A   20154.19073981  .00000089  00000-0  00000+0 0  9995
2 41859  54.6492 162.2647 0006149 292.3014  67.6723  1.70473304 22024
GSAT0212 (GALILEO 16)   
1 41860U 16069B   20154.04417613  .00000090  00000-0  00000+0 0  9997
2 41860  54.6471 162.2677 0004976 307.0414  52.9523  1.70473316 22040
GSAT0213 (GALILEO 17)   
1 41861U 16069C   20153.23688170  .00000091  00000-0  00000-0 0  9998
2 41861  54.6495 162.2940 0005416 276.3092  83.6692  1.70473433 22037
GSAT0214 (GALILEO 18)   
1 41862U 16069D   20148.10459940  .00000084  00000-0  00000-0 0  9992
2 41862  54.6466 162.4319 0004587 280.3284  79.6553  1.70473462 21935
GOES 16                 
1 41866U 16071A   20154.75277322 -.00000252  00000-0  00000-0 0  9997
2 41866   0.0252 234.7563 0001018 223.0514 349.6838  1.00273806 12992
GSAT-17                 
1 42815U 17040B   20154.77934071 -.00000262  00000-0  00000-0 0  9993
2 42815   0.0243 272.6831 0002040  58.5369 294.5399  1.00271787 10670
GSAT0215 (GALILEO 19)   
1 43055U 17079A   20153.87379043 -.00000047  00000-0  00000+0 0  9994
2 43055  56.2808 282.2247 0001408 237.4720 122.4899  1.70474350 15375
GSAT0216 (GALILEO 20)   
1 43056U 17079B   20153.57997741 -.00000045  00000-0  00000+0 0  9991
2 43056  56.2820 282.2324 0003119 258.7217 101.2198  1.70474494 15358
GSAT0217 (GALILEO 21)   
1 43057U 17079C   20154.38660706 -.00000049  00000-0  00000+0 0  9994
2 43057  56.2797 282.2110 0002525 274.5192  85.4259  1.70474413 15388
GSAT0218 (GALILEO 22)   
1 43058U 17079D   20152.84684485 -.00000040  00000-0  00000-0 0  9996
2 43058  56.2807 282.2505 0003603 255.4187 104.5211  1.70474402 15388
GOES 17                 
1 43226U 18022A   20154.74038571  .00000094  00000-0  00000-0 0  9990
2 43226   0.0308 239.8574 0000450 200.7126 300.4317  1.00271498  8294
GSAT0221 (GALILEO 25)   
1 43564U 18060A   20152.74676088 -.00000082  00000-0  00000-0 0  9994
2 43564  56.7990  41.5010 0003581 295.1186  64.8800  1.70475391 11533
GSAT0222 (GALILEO 26)   
1 43565U 18060B   20153.55319802 -.00000085  00000-0  00000+0 0  9995
2 43565  56.8013  41.4782 0003551 306.0933  53.9100  1.70475368 11597
GSAT0219 (GALILEO 23)   
1 43566U 18060C   20152.01370125 -.00000079  00000-0  00000+0 0  9994
2 43566  56.8007  41.5222 0003156 302.7366  57.2690  1.70475294 11549
GSAT0220 (GALILEO 24)   
1 43567U 18060D   20152.82016114 -.00000082  00000-0  00000+0 0  9993
2 43567  56.8012  41.5007 0003309 302.9137  57.0901  1.70475115 11539
BEIDOU-3 M13            
1 43622U 18072A   20154.61050120  .00000069  00000-0  00000-0 0  9997
2 43622  55.1345 136.4173 0008778 286.9476 347.6739  1.86231823 11576
BEIDOU-3 M14            
1 43623U 18072B   20154.83193542  .00000065  00000-0  00000-0 0  9994
2 43623  55.1334 136.4019 0007500 305.5414 207.7499  1.86231914 11587
METEOR-M2 2             
1 44387U 19038A   20154.88907362 -.00000027  00000-0  71161-5 0  9993
2 44387  98.6187 115.2210 0000262 327.3229  32.7934 14.23679279 47466
